QIANFAN-73              
1 63159U 25046A   25270.61492463  .00000176  00000+0  25389-3 0  9995
2 63159  88.9822 327.8951 0014059 352.3209   7.7725 13.50976488 37134
QIANFAN-74              
1 63160U 25046B   25270.22805291  .00000088  00000+0  11848-3 0  9998
2 63160  88.9824 327.8233 0002256 105.7462 254.3938 13.50969278 37144
QIANFAN-75              
1 63161U 25046C   25270.66016726  .00000232  00000+0  34020-3 0  9992
2 63161  88.9823 328.0113 0015223 354.6795   5.4191 13.50980298 37079
QIANFAN-76              
1 63162U 25046D   25270.65605358  .00000107  00000+0  14749-3 0  9994
2 63162  88.9826 327.9928 0012841 356.8574   3.2495 13.50973924 37089
QIANFAN-77              
1 63163U 25046E   25270.63970692  .00000493  00000+0  34963-3 0  9997
2 63163  88.9819 326.6265 0012949 324.8926  35.1396 13.96054205 37836
QIANFAN-78              
1 63164U 25046F   25270.17873922  .00000155  00000+0  22125-3 0  9997
2 63164  88.9825 327.9067 0014334 359.8558   0.2586 13.50978582 37092
QIANFAN-79              
1 63165U 25046G   25270.65181844  .00000181  00000+0  26143-3 0  9999
2 63165  88.9829 327.9626 0013908 356.8989   3.2073 13.50968173 37100
QIANFAN-80              
1 63166U 25046H   25270.66839954  .00000222  00000+0  32482-3 0  9992
2 63166  88.9825 327.6697 0013074   1.9821 358.1380 13.50968803 37269
